[{"OBJECT_NAME":"GPS BIIR-2  (PRN 13)","OBJECT_ID":"1997-035A","EPOCH":"2026-03-28T10:21:38.212128","MEAN_MOTION":2.00563873,"ECCENTRICITY":0.0098722,"INCLINATION":55.95,"RA_OF_ASC_NODE":101.7308,"ARG_OF_PERICENTER":56.1329,"MEAN_ANOMALY":304.8527,"EPHEMERIS_TYPE":0,"CLASSIFICATION_TYPE":"U","NORAD_CAT_ID":24876,"ELEMENT_SET_NO":999,"REV_AT_EPOCH":21033,"BSTAR":0,"MEAN_MOTION_DOT":5.1e-7,"MEAN_MOTION_DDOT":0},{"OBJECT_NAME":"GPS BIIR-5  (PRN 22)","OBJECT_ID":"2000-040A","EPOCH":"2026-03-28T12:46:25.008096","MEAN_MOTION":2.00569122,"ECCENTRICITY":0.01222239,"INCLINATION":54.8698,"RA_OF_ASC_NODE":218.3638,"ARG_OF_PERICENTER":302.5125,"MEAN_ANOMALY":64.7596,"EPHEMERIS_TYPE":0,"CLASSIFICATION_TYPE":"U","NORAD_CAT_ID":26407,"ELEMENT_SET_NO":999,"REV_AT_EPOCH":18833,"BSTAR":0,"MEAN_MOTION_DOT":-3.4e-7,"MEAN_MOTION_DDOT":0},{"OBJECT_NAME":"GPS BIIR-8  (PRN 16)","OBJECT_ID":"2003-005A","EPOCH":"2026-03-29T01:56:38.812128","MEAN_MOTION":2.0056484,"ECCENTRICITY":0.0148521,"INCLINATION":54.9007,"RA_OF_ASC_NODE":218.1499,"ARG_OF_PERICENTER":52.8613,"MEAN_ANOMALY":126.2596,"EPHEMERIS_TYPE":0,"CLASSIFICATION_TYPE":"U","NORAD_CAT_ID":27663,"ELEMENT_SET_NO":999,"REV_AT_EPOCH":16970,"BSTAR":0,"MEAN_MOTION_DOT":-3.9e-7,"MEAN_MOTION_DDOT":0},{"OBJECT_NAME":"GPS BIIR-11 (PRN 19)","OBJECT_ID":"2004-009A","EPOCH":"2026-03-28T08:46:59.974752","MEAN_MOTION":2.00557238,"ECCENTRICITY":0.01121577,"INCLINATION":54.8974,"RA_OF_ASC_NODE":278.9506,"ARG_OF_PERICENTER":169.767,"MEAN_ANOMALY":8.2543,"EPHEMERIS_TYPE":0,"CLASSIFICATION_TYPE":"U","NORAD_CAT_ID":28190,"ELEMENT_SET_NO":999,"REV_AT_EPOCH":16132,"BSTAR":0,"MEAN_MOTION_DOT":-1.0e-8,"MEAN_MOTION_DDOT":0},{"OBJECT_NAME":"GPS BIIR-13 (PRN 02)","OBJECT_ID":"2004-045A","EPOCH":"2026-03-26T07:19:28.719264","MEAN_MOTION":2.00574367,"ECCENTRICITY":0.0170517,"INCLINATION":55.1822,"RA_OF_ASC_NODE":328.236,"ARG_OF_PERICENTER":313.6726,"MEAN_ANOMALY":241.0281,"EPHEMERIS_TYPE":0,"CLASSIFICATION_TYPE":"U","NORAD_CAT_ID":28474,"ELEMENT_SET_NO":999,"REV_AT_EPOCH":15676,"BSTAR":0,"MEAN_MOTION_DOT":-7.3e-7,"MEAN_MOTION_DDOT":0},{"OBJECT_NAME":"GPS BIIRM-1 (PRN 17)","OBJECT_ID":"2005-038A","EPOCH":"2026-03-28T08:49:44.273856","MEAN_MOTION":2.00571249,"ECCENTRICITY":0.012819,"INCLINATION":54.9447,"RA_OF_ASC_NODE":276.4371,"ARG_OF_PERICENTER":295.6323,"MEAN_ANOMALY":268.7932,"EPHEMERIS_TYPE":0,"CLASSIFICATION_TYPE":"U","NORAD_CAT_ID":28874,"ELEMENT_SET_NO":999,"REV_AT_EPOCH":15021,"BSTAR":0,"MEAN_MOTION_DOT":0,"MEAN_MOTION_DDOT":0},{"OBJECT_NAME":"GPS BIIRM-2 (PRN 31)","OBJECT_ID":"2006-042A","EPOCH":"2026-03-28T23:06:47.273760","MEAN_MOTION":2.00574181,"ECCENTRICITY":0.010636,"INCLINATION":54.6992,"RA_OF_ASC_NODE":154.5249,"ARG_OF_PERICENTER":53.1327,"MEAN_ANOMALY":118.3397,"EPHEMERIS_TYPE":0,"CLASSIFICATION_TYPE":"U","NORAD_CAT_ID":29486,"ELEMENT_SET_NO":999,"REV_AT_EPOCH":14278,"BSTAR":0,"MEAN_MOTION_DOT":2.0e-8,"MEAN_MOTION_DDOT":0},{"OBJECT_NAME":"GPS BIIRM-3 (PRN 12)","OBJECT_ID":"2006-052A","EPOCH":"2026-03-28T15:29:30.146784","MEAN_MOTION":2.00553221,"ECCENTRICITY":0.0087291,"INCLINATION":54.9511,"RA_OF_ASC_NODE":217.1971,"ARG_OF_PERICENTER":89.8188,"MEAN_ANOMALY":271.1436,"EPHEMERIS_TYPE":0,"CLASSIFICATION_TYPE":"U","NORAD_CAT_ID":29601,"ELEMENT_SET_NO":999,"REV_AT_EPOCH":14179,"BSTAR":0,"MEAN_MOTION_DOT":-3.6e-7,"MEAN_MOTION_DDOT":0},{"OBJECT_NAME":"GPS BIIRM-4 (PRN 15)","OBJECT_ID":"2007-047A","EPOCH":"2026-03-28T22:49:51.955392","MEAN_MOTION":2.00559375,"ECCENTRICITY":0.0163986,"INCLINATION":54.0359,"RA_OF_ASC_NODE":83.3707,"ARG_OF_PERICENTER":86.1699,"MEAN_ANOMALY":275.727,"EPHEMERIS_TYPE":0,"CLASSIFICATION_TYPE":"U","NORAD_CAT_ID":32260,"ELEMENT_SET_NO":999,"REV_AT_EPOCH":13520,"BSTAR":0,"MEAN_MOTION_DOT":2.5e-7,"MEAN_MOTION_DDOT":0},{"OBJECT_NAME":"GPS BIIRM-5 (PRN 29)","OBJECT_ID":"2007-062A","EPOCH":"2026-03-29T00:36:53.961120","MEAN_MOTION":2.00555011,"ECCENTRICITY":0.0033722,"INCLINATION":55.0963,"RA_OF_ASC_NODE":277.3729,"ARG_OF_PERICENTER":161.1106,"MEAN_ANOMALY":20.0101,"EPHEMERIS_TYPE":0,"CLASSIFICATION_TYPE":"U","NORAD_CAT_ID":32384,"ELEMENT_SET_NO":999,"REV_AT_EPOCH":13390,"BSTAR":0,"MEAN_MOTION_DOT":-7.0e-8,"MEAN_MOTION_DDOT":0},{"OBJECT_NAME":"GPS BIIRM-6 (PRN 07)","OBJECT_ID":"2008-012A","EPOCH":"2026-03-27T08:56:45.660480","MEAN_MOTION":2.00569963,"ECCENTRICITY":0.0208278,"INCLINATION":54.4839,"RA_OF_ASC_NODE":153.1942,"ARG_OF_PERICENTER":246.5928,"MEAN_ANOMALY":111.2592,"EPHEMERIS_TYPE":0,"CLASSIFICATION_TYPE":"U","NORAD_CAT_ID":32711,"ELEMENT_SET_NO":999,"REV_AT_EPOCH":13211,"BSTAR":0,"MEAN_MOTION_DOT":-9.0e-8,"MEAN_MOTION_DDOT":0},{"OBJECT_NAME":"GPS BIIRM-8 (PRN 05)","OBJECT_ID":"2009-043A","EPOCH":"2026-03-28T14:03:42.477120","MEAN_MOTION":2.00558801,"ECCENTRICITY":0.0052264,"INCLINATION":56.1631,"RA_OF_ASC_NODE":30.6179,"ARG_OF_PERICENTER":80.8092,"MEAN_ANOMALY":90.0384,"EPHEMERIS_TYPE":0,"CLASSIFICATION_TYPE":"U","NORAD_CAT_ID":35752,"ELEMENT_SET_NO":999,"REV_AT_EPOCH":12174,"BSTAR":0,"MEAN_MOTION_DOT":-8.5e-7,"MEAN_MOTION_DDOT":0},{"OBJECT_NAME":"GPS BIIF-1  (PRN 25)","OBJECT_ID":"2010-022A","EPOCH":"2026-03-28T17:12:42.892704","MEAN_MOTION":2.00558387,"ECCENTRICITY":0.01270614,"INCLINATION":54.2836,"RA_OF_ASC_NODE":211.8024,"ARG_OF_PERICENTER":66.0086,"MEAN_ANOMALY":316.4344,"EPHEMERIS_TYPE":0,"CLASSIFICATION_TYPE":"U","NORAD_CAT_ID":36585,"ELEMENT_SET_NO":999,"REV_AT_EPOCH":11598,"BSTAR":0,"MEAN_MOTION_DOT":-4.1e-7,"MEAN_MOTION_DDOT":0},{"OBJECT_NAME":"GPS BIIF-3  (PRN 24)","OBJECT_ID":"2012-053A","EPOCH":"2026-03-27T01:15:46.012032","MEAN_MOTION":2.00566077,"ECCENTRICITY":0.0177237,"INCLINATION":53.5685,"RA_OF_ASC_NODE":146.9649,"ARG_OF_PERICENTER":64.9128,"MEAN_ANOMALY":296.9786,"EPHEMERIS_TYPE":0,"CLASSIFICATION_TYPE":"U","NORAD_CAT_ID":38833,"ELEMENT_SET_NO":999,"REV_AT_EPOCH":9779,"BSTAR":0,"MEAN_MOTION_DOT":-4.0e-8,"MEAN_MOTION_DDOT":0},{"OBJECT_NAME":"GPS BIIF-4  (PRN 27)","OBJECT_ID":"2013-023A","EPOCH":"2026-03-28T21:53:21.271200","MEAN_MOTION":2.00563944,"ECCENTRICITY":0.0141937,"INCLINATION":54.568,"RA_OF_ASC_NODE":272.2416,"ARG_OF_PERICENTER":50.3073,"MEAN_ANOMALY":310.933,"EPHEMERIS_TYPE":0,"CLASSIFICATION_TYPE":"U","NORAD_CAT_ID":39166,"ELEMENT_SET_NO":999,"REV_AT_EPOCH":9427,"BSTAR":0,"MEAN_MOTION_DOT":-6.0e-8,"MEAN_MOTION_DDOT":0},{"OBJECT_NAME":"GPS BIIF-5  (PRN 30)","OBJECT_ID":"2014-008A","EPOCH":"2026-03-28T09:54:53.470368","MEAN_MOTION":2.00554546,"ECCENTRICITY":0.0083084,"INCLINATION":53.6397,"RA_OF_ASC_NODE":152.6153,"ARG_OF_PERICENTER":229.1635,"MEAN_ANOMALY":130.1722,"EPHEMERIS_TYPE":0,"CLASSIFICATION_TYPE":"U","NORAD_CAT_ID":39533,"ELEMENT_SET_NO":999,"REV_AT_EPOCH":8806,"BSTAR":0,"MEAN_MOTION_DOT":-2.0e-8,"MEAN_MOTION_DDOT":0},{"OBJECT_NAME":"GPS BIIF-6  (PRN 06)","OBJECT_ID":"2014-026A","EPOCH":"2026-03-28T04:35:35.006496","MEAN_MOTION":2.00566865,"ECCENTRICITY":0.00395184,"INCLINATION":56.535,"RA_OF_ASC_NODE":334.6726,"ARG_OF_PERICENTER":325.7427,"MEAN_ANOMALY":34.0463,"EPHEMERIS_TYPE":0,"CLASSIFICATION_TYPE":"U","NORAD_CAT_ID":39741,"ELEMENT_SET_NO":999,"REV_AT_EPOCH":8691,"BSTAR":0,"MEAN_MOTION_DOT":-8.4e-7,"MEAN_MOTION_DDOT":0}]
